UNISAT-6                
1 40012U 14033C   26087.97669451  .00003718  00000+0  40616-3 0  9996
2 40012  97.7762 242.1733 0044633 334.3057  25.5942 14.87763111634238
DUCHIFAT-1              
1 40021U 14033M   26088.11892962  .00070258  00000+0  11492-2 0  9990
2 40021  98.0602 136.8704 0003732  20.9001 339.2402 15.52278318643288
QB50P1                  
1 40025U 14033R   26087.84226631  .00011309  00000+0  57652-3 0  9998
2 40025  98.1001  93.4257 0010265 133.3453 226.8635 15.16904902640849
LILACSAT-2              
1 40908U 15049K   26088.16110551  .00020366  00000+0  38064-3 0  9994
2 40908  97.4776 122.0685 0007847 168.7362 191.4065 15.48744735583354
FOX-1A (AO-85)          
1 40967U 15058D   26088.18533543  .00003313  00000+0  30458-3 0  9993
2 40967  64.7757 167.5097 0128424  88.0848 273.4966 14.90493359101642
CAS-2T & KS-1Q          
1 41847U 16066G   26088.17097214  .00001233  00000+0  18172-3 0  9998
2 41847  98.3857 164.8051 0342605  12.5347 348.4101 14.44521513493246
RADFXSAT (FOX-1B)       
1 43017U 17073E   26088.06380309  .00010034  00000+0  45237-3 0  9997
2 43017  97.4830 316.9538 0153117 244.7829 113.7462 15.11259519453282
DIWATA-2B               
1 43678U 18084H   26088.20079995  .00002430  00000+0  20006-3 0  9993
2 43678  98.1040 281.0392 0013602  68.9726 291.2950 15.00056761404228
ES'HAIL 2               
1 43700U 18090A   26088.12032014  .00000125  00000+0  00000+0 0  9995
2 43700   0.0173 118.1117 0001121 252.2190 245.3126  1.00274427 26876
FOX-1CLIFF (AO-95)      
1 43770U 18099N   26088.13539059  .00013906  00000+0  56068-3 0  9993
2 43770  97.4473 148.7517 0007465 267.1610  92.8773 15.24912936401019
ITASAT                  
1 43786U 18099AE  26088.09071660  .00009107  00000+0  45057-3 0  9998
2 43786  97.4131 141.2254 0011212 271.3141  88.6809 15.17979919400753
JY1SAT (JO-97)          
1 43803U 18099AX  26088.16759390  .00024823  00000+0  82839-3 0  9990
2 43803  97.4221 150.8493 0006247 180.6364 179.4870 15.31028524401374
UWE-4                   
1 43880U 18111E   26087.77066150  .00038209  00000+0  91753-3 0  9999
2 43880  97.5850  12.7684 0005937 247.2202 112.8417 15.41240829398370
TIANYAN 01              
1 44881U 19093C   26088.20837174  .00000647  00000+0  79273-4 0  9991
2 44881  97.7578 162.3812 0013481 356.3806   3.7310 14.86379835339532
RS-44 & BREEZE-KM R/B   
1 44909U 19096E   26088.10460712  .00000006  00000+0 -14518-4 0  9995
2 44909  82.5244  32.9132 0217063 331.9292  27.0239 12.79747751292108
SALSAT                  
1 46495U 20068K   26087.98694119  .00010179  00000+0  36891-3 0  9991
2 46495  97.8861  86.2455 0008782 214.9729 145.0934 15.28549734303109
XW-3 (CAS-9)            
1 50466U 21131B   26088.22034407  .00000477  00000+0  16129-3 0  9994
2 50466  98.4945 181.0623 0003748 356.1334   3.9825 14.41274655223597
